{
    "links": {
        "self": "http://www.neowsapp.com/rest/v1/neo/3645034?api_key=iIulBulltgU6a56xZRHN4H3l9WmuAYTsLGpBGhQ2"
    },
    "id": "3645034",
    "neo_reference_id": "3645034",
    "name": "(2013 NR13)",
    "designation": "2013 NR13",
    "nasa_jpl_url": "http://ssd.jpl.nasa.gov/sbdb.cgi?sstr=3645034",
    "absolute_magnitude_h": 25.7,
    "estimated_diameter": {
        "kilometers": {
            "estimated_diameter_min": 0.0192555078,
            "estimated_diameter_max": 0.0430566244
        },
        "meters": {
            "estimated_diameter_min": 19.2555078188,
            "estimated_diameter_max": 43.0566244241
        },
        "miles": {
            "estimated_diameter_min": 0.0119648141,
            "estimated_diameter_max": 0.0267541378
        },
        "feet": {
            "estimated_diameter_min": 63.1742402722,
            "estimated_diameter_max": 141.2618956756
        }
    },
    "is_potentially_hazardous_asteroid": false,
    "close_approach_data": [
        {
            "close_approach_date": "2013-07-05",
            "close_approach_date_full": "2013-Jul-05 03:35",
            "epoch_date_close_approach": 1372995300000,
            "relative_velocity": {
                "kilometers_per_second": "9.9714528099",
                "kilometers_per_hour": "35897.2301157389",
                "miles_per_hour": "22305.1427905268"
            },
            "miss_distance": {
                "astronomical": "0.0216466769",
                "lunar": "8.4205573141",
                "kilometers": "3238296.756818203",
                "miles": "2012184.2984610814"
            },
            "orbiting_body": "Earth"
        }
    ],
    "orbital_data": {
        "orbit_id": "6",
        "orbit_determination_date": "2017-04-06 08:45:24",
        "first_observation_date": "2013-07-12",
        "last_observation_date": "2013-07-16",
        "data_arc_in_days": 4,
        "observations_used": 12,
        "orbit_uncertainty": "8",
        "minimum_orbit_intersection": ".0210615",
        "jupiter_tisserand_invariant": "3.595",
        "epoch_osculation": "2456486.5",
        "eccentricity": ".5292992420096801",
        "semi_major_axis": "2.052911014290054",
        "inclination": "5.540299256356726",
        "ascending_node_longitude": "113.4031165872833",
        "orbital_period": "1074.369359761381",
        "perihelion_distance": ".9663067705130046",
        "perihelion_argument": "135.2051838816491",
        "aphelion_distance": "3.139515258067103",
        "perihelion_time": "2456450.845363644548",
        "mean_anomaly": "11.94716600147043",
        "mean_motion": ".3350802931311785",
        "equinox": "J2000",
        "orbit_class": {
            "orbit_class_type": "APO",
            "orbit_class_description": "Near-Earth asteroid orbits which cross the Earth’s orbit similar to that of 1862 Apollo",
            "orbit_class_range": "a (semi-major axis) > 1.0 AU; q (perihelion) < 1.017 AU"
        }
    },
    "is_sentry_object": false
}